CCSDS_OMM_VERS = 2.0
CREATION_DATE  = 
ORIGINATOR     = 

OBJECT_NAME    = STARLINK-37074
OBJECT_ID      = 2026-042E
CENTER_NAME    = EARTH
REF_FRAME      = TEME
TIME_SYSTEM    = UTC
MEAN_ELEMENT_THEORY = SGP/SGP4

EPOCH          = 2026-03-17T14:00:01.999872
MEAN_MOTION    = 15.80859603
ECCENTRICITY   = .00011858
INCLINATION    = 53.1596
RA_OF_ASC_NODE = 155.1855
ARG_OF_PERICENTER = 93.9016
MEAN_ANOMALY   = 196.1319

EPHEMERIS_TYPE = 0
CLASSIFICATION_TYPE = U
NORAD_CAT_ID   = 68073
ELEMENT_SET_NO = 999
REV_AT_EPOCH   = 332
BSTAR          = .17386114E-3
MEAN_MOTION_DOT = .33728E-3
MEAN_MOTION_DDOT = 0

CCSDS_OMM_VERS = 2.0
CREATION_DATE  = 
ORIGINATOR     = 

OBJECT_NAME    = STARLINK-37045
OBJECT_ID      = 2026-042F
CENTER_NAME    = EARTH
REF_FRAME      = TEME
TIME_SYSTEM    = UTC
MEAN_ELEMENT_THEORY = SGP/SGP4

EPOCH          = 2026-03-17T14:00:01.999872
MEAN_MOTION    = 15.80868533
ECCENTRICITY   = .00010785
INCLINATION    = 53.1595
RA_OF_ASC_NODE = 155.1766
ARG_OF_PERICENTER = 103.4703
MEAN_ANOMALY   = 190.8454

EPHEMERIS_TYPE = 0
CLASSIFICATION_TYPE = U
NORAD_CAT_ID   = 68074
ELEMENT_SET_NO = 999
REV_AT_EPOCH   = 332
BSTAR          = .70723397E-4
MEAN_MOTION_DOT = .13278E-3
MEAN_MOTION_DDOT = 0

CCSDS_OMM_VERS = 2.0
CREATION_DATE  = 
ORIGINATOR     = 

OBJECT_NAME    = STARLINK-37026
OBJECT_ID      = 2026-042G
CENTER_NAME    = EARTH
REF_FRAME      = TEME
TIME_SYSTEM    = UTC
MEAN_ELEMENT_THEORY = SGP/SGP4

EPOCH          = 2026-03-17T14:00:01.999872
MEAN_MOTION    = 15.80279086
ECCENTRICITY   = .00007694
INCLINATION    = 53.1596
RA_OF_ASC_NODE = 155.1680
ARG_OF_PERICENTER = 85.2662
MEAN_ANOMALY   = 213.1458

EPHEMERIS_TYPE = 0
CLASSIFICATION_TYPE = U
NORAD_CAT_ID   = 68075
ELEMENT_SET_NO = 999
REV_AT_EPOCH   = 332
BSTAR          = -.11429764E-1
MEAN_MOTION_DOT = -.1913377E-1
MEAN_MOTION_DDOT = 0

CCSDS_OMM_VERS = 2.0
CREATION_DATE  = 
ORIGINATOR     = 

OBJECT_NAME    = STARLINK-37023
OBJECT_ID      = 2026-042H
CENTER_NAME    = EARTH
REF_FRAME      = TEME
TIME_SYSTEM    = UTC
MEAN_ELEMENT_THEORY = SGP/SGP4

EPOCH          = 2026-03-17T14:00:01.999872
MEAN_MOTION    = 15.80866242
ECCENTRICITY   = .00011973
INCLINATION    = 53.1593
RA_OF_ASC_NODE = 155.1589
ARG_OF_PERICENTER = 85.1058
MEAN_ANOMALY   = 217.7359

EPHEMERIS_TYPE = 0
CLASSIFICATION_TYPE = U
NORAD_CAT_ID   = 68076
ELEMENT_SET_NO = 999
REV_AT_EPOCH   = 332
BSTAR          = .14933927E-3
MEAN_MOTION_DOT = .28865E-3
MEAN_MOTION_DDOT = 0

CCSDS_OMM_VERS = 2.0
CREATION_DATE  = 
ORIGINATOR     = 

OBJECT_NAME    = STARLINK-37036
OBJECT_ID      = 2026-042J
CENTER_NAME    = EARTH
REF_FRAME      = TEME
TIME_SYSTEM    = UTC
MEAN_ELEMENT_THEORY = SGP/SGP4

EPOCH          = 2026-03-17T14:00:01.999872
MEAN_MOTION    = 15.80891772
ECCENTRICITY   = .00008097
INCLINATION    = 53.1594
RA_OF_ASC_NODE = 155.1500
ARG_OF_PERICENTER = 83.6442
MEAN_ANOMALY   = 223.4601

EPHEMERIS_TYPE = 0
CLASSIFICATION_TYPE = U
NORAD_CAT_ID   = 68077
ELEMENT_SET_NO = 999
REV_AT_EPOCH   = 332
BSTAR          = -.94020418E-4
MEAN_MOTION_DOT = -.19229E-3
MEAN_MOTION_DDOT = 0

CCSDS_OMM_VERS = 2.0
CREATION_DATE  = 
ORIGINATOR     = 

OBJECT_NAME    = STARLINK-36973
OBJECT_ID      = 2026-042K
CENTER_NAME    = EARTH
REF_FRAME      = TEME
TIME_SYSTEM    = UTC
MEAN_ELEMENT_THEORY = SGP/SGP4

EPOCH          = 2026-03-17T14:00:01.999872
MEAN_MOTION    = 15.80871469
ECCENTRICITY   = .00010286
INCLINATION    = 53.1595
RA_OF_ASC_NODE = 155.1322
ARG_OF_PERICENTER = 88.8418
MEAN_ANOMALY   = 226.8271

EPHEMERIS_TYPE = 0
CLASSIFICATION_TYPE = U
NORAD_CAT_ID   = 68078
ELEMENT_SET_NO = 999
REV_AT_EPOCH   = 332
BSTAR          = .50945318E-4
MEAN_MOTION_DOT = .9366E-4
MEAN_MOTION_DDOT = 0

CCSDS_OMM_VERS = 2.0
CREATION_DATE  = 
ORIGINATOR     = 

OBJECT_NAME    = STARLINK-37063
OBJECT_ID      = 2026-042L
CENTER_NAME    = EARTH
REF_FRAME      = TEME
TIME_SYSTEM    = UTC
MEAN_ELEMENT_THEORY = SGP/SGP4

EPOCH          = 2026-03-17T14:00:01.999872
MEAN_MOTION    = 15.80896965
ECCENTRICITY   = .00015489
INCLINATION    = 53.1594
RA_OF_ASC_NODE = 155.1412
ARG_OF_PERICENTER = 82.7618
MEAN_ANOMALY   = 228.6266

EPHEMERIS_TYPE = 0
CLASSIFICATION_TYPE = U
NORAD_CAT_ID   = 68079
ELEMENT_SET_NO = 999
REV_AT_EPOCH   = 332
BSTAR          = -.17499227E-3
MEAN_MOTION_DOT = -.35137E-3
MEAN_MOTION_DDOT = 0

CCSDS_OMM_VERS = 2.0
CREATION_DATE  = 
ORIGINATOR     = 

OBJECT_NAME    = STARLINK-37051
OBJECT_ID      = 2026-042M
CENTER_NAME    = EARTH
REF_FRAME      = TEME
TIME_SYSTEM    = UTC
MEAN_ELEMENT_THEORY = SGP/SGP4

EPOCH          = 2026-03-17T14:00:01.999872
MEAN_MOTION    = 15.80853494
ECCENTRICITY   = .00012707
INCLINATION    = 53.1594
RA_OF_ASC_NODE = 155.1145
ARG_OF_PERICENTER = 84.0797
MEAN_ANOMALY   = 240.1482

EPHEMERIS_TYPE = 0
CLASSIFICATION_TYPE = U
NORAD_CAT_ID   = 68080
ELEMENT_SET_NO = 999
REV_AT_EPOCH   = 332
BSTAR          = .17606875E-3
MEAN_MOTION_DOT = .34157E-3
MEAN_MOTION_DDOT = 0

CCSDS_OMM_VERS = 2.0
CREATION_DATE  = 
ORIGINATOR     = 

OBJECT_NAME    = STARLINK-37066
OBJECT_ID      = 2026-042N
CENTER_NAME    = EARTH
REF_FRAME      = TEME
TIME_SYSTEM    = UTC
MEAN_ELEMENT_THEORY = SGP/SGP4

EPOCH          = 2026-03-17T14:00:01.999872
MEAN_MOTION    = 15.80845973
ECCENTRICITY   = .00015926
INCLINATION    = 53.1598
RA_OF_ASC_NODE = 155.1236
ARG_OF_PERICENTER = 81.4422
MEAN_ANOMALY   = 238.4971

EPHEMERIS_TYPE = 0
CLASSIFICATION_TYPE = U
NORAD_CAT_ID   = 68081
ELEMENT_SET_NO = 999
REV_AT_EPOCH   = 332
BSTAR          = .16183739E-3
MEAN_MOTION_DOT = .31319E-3
MEAN_MOTION_DDOT = 0

CCSDS_OMM_VERS = 2.0
CREATION_DATE  = 
ORIGINATOR     = 

OBJECT_NAME    = STARLINK-37054
OBJECT_ID      = 2026-042P
CENTER_NAME    = EARTH
REF_FRAME      = TEME
TIME_SYSTEM    = UTC
MEAN_ELEMENT_THEORY = SGP/SGP4

EPOCH          = 2026-03-17T14:00:01.999872
MEAN_MOTION    = 15.80860214
ECCENTRICITY   = .00014324
INCLINATION    = 53.1593
RA_OF_ASC_NODE = 155.1057
ARG_OF_PERICENTER = 79.9651
MEAN_ANOMALY   = 248.5195

EPHEMERIS_TYPE = 0
CLASSIFICATION_TYPE = U
NORAD_CAT_ID   = 68082
ELEMENT_SET_NO = 999
REV_AT_EPOCH   = 332
BSTAR          = .17217514E-3
MEAN_MOTION_DOT = .33394E-3
MEAN_MOTION_DDOT = 0

CCSDS_OMM_VERS = 2.0
CREATION_DATE  = 
ORIGINATOR     = 

OBJECT_NAME    = STARLINK-37065
OBJECT_ID      = 2026-042Q
CENTER_NAME    = EARTH
REF_FRAME      = TEME
TIME_SYSTEM    = UTC
MEAN_ELEMENT_THEORY = SGP/SGP4

EPOCH          = 2026-03-17T14:00:01.999872
MEAN_MOTION    = 15.80868019
ECCENTRICITY   = .00012153
INCLINATION    = 53.1597
RA_OF_ASC_NODE = 155.0970
ARG_OF_PERICENTER = 85.9811
MEAN_ANOMALY   = 246.7668

EPHEMERIS_TYPE = 0
CLASSIFICATION_TYPE = U
NORAD_CAT_ID   = 68083
ELEMENT_SET_NO = 999
REV_AT_EPOCH   = 332
BSTAR          = .12487583E-3
MEAN_MOTION_DOT = .2401E-3
MEAN_MOTION_DDOT = 0

CCSDS_OMM_VERS = 2.0
CREATION_DATE  = 
ORIGINATOR     = 

OBJECT_NAME    = STARLINK-37037
OBJECT_ID      = 2026-042R
CENTER_NAME    = EARTH
REF_FRAME      = TEME
TIME_SYSTEM    = UTC
MEAN_ELEMENT_THEORY = SGP/SGP4

EPOCH          = 2026-03-17T14:00:01.999872
MEAN_MOTION    = 15.80850441
ECCENTRICITY   = .00015327
INCLINATION    = 53.1591
RA_OF_ASC_NODE = 155.0880
ARG_OF_PERICENTER = 89.5156
MEAN_ANOMALY   = 247.5067

EPHEMERIS_TYPE = 0
CLASSIFICATION_TYPE = U
NORAD_CAT_ID   = 68084
ELEMENT_SET_NO = 999
REV_AT_EPOCH   = 332
BSTAR          = .30917838E-3
MEAN_MOTION_DOT = .6069E-3
MEAN_MOTION_DDOT = 0

