STARLINK-37074          
1 68073U 26042E   26076.58335648  .00033728  00000+0  17386-3 0  9991
2 68073  53.1596 155.1855 0001185  93.9016 196.1319 15.80859603  3321
STARLINK-37045          
1 68074U 26042F   26076.58335648  .00013278  00000+0  70723-4 0  9995
2 68074  53.1595 155.1766 0001078 103.4703 190.8454 15.80868533  3326
STARLINK-37026          
1 68075U 26042G   26076.58335648 -.01913377  00000+0 -11430-1 0  9995
2 68075  53.1596 155.1680 0000769  85.2662 213.1458 15.80279086  3322
STARLINK-37023          
1 68076U 26042H   26076.58335648  .00028865  00000+0  14934-3 0  9996
2 68076  53.1593 155.1589 0001197  85.1058 217.7359 15.80866242  3328
STARLINK-37036          
1 68077U 26042J   26076.58335648 -.00019229  00000+0 -94020-4 0  9998
2 68077  53.1594 155.1500 0000809  83.6442 223.4601 15.80891772  3322
STARLINK-36973          
1 68078U 26042K   26076.58335648  .00009366  00000+0  50945-4 0  9996
2 68078  53.1595 155.1322 0001028  88.8418 226.8271 15.80871469  3321
STARLINK-37063          
1 68079U 26042L   26076.58335648 -.00035137  00000+0 -17499-3 0  9990
2 68079  53.1594 155.1412 0001548  82.7618 228.6266 15.80896965  3325
STARLINK-37051          
1 68080U 26042M   26076.58335648  .00034157  00000+0  17607-3 0  9992
2 68080  53.1594 155.1145 0001270  84.0797 240.1482 15.80853494  3324
STARLINK-37066          
1 68081U 26042N   26076.58335648  .00031319  00000+0  16184-3 0  9999
2 68081  53.1598 155.1236 0001592  81.4422 238.4971 15.80845973  3329
STARLINK-37054          
1 68082U 26042P   26076.58335648  .00033394  00000+0  17218-3 0  9994
2 68082  53.1593 155.1057 0001432  79.9651 248.5195 15.80860214  3320
STARLINK-37065          
1 68083U 26042Q   26076.58335648  .00024010  00000+0  12488-3 0  9994
2 68083  53.1597 155.0970 0001215  85.9811 246.7668 15.80868019  3328
STARLINK-37037          
1 68084U 26042R   26076.58335648  .00060690  00000+0  30918-3 0  9997
2 68084  53.1591 155.0880 0001532  89.5156 247.5067 15.80850441  3329
